{
  "type": "FeatureCollection",
  "features": [
    {
      "type": "Feature",
      "properties": {
        "norad_id": 38474,
        "name": "IRIDIUM 33 DEB",
        "group": "iridium-33-debris",
        "lat": -61.29448949228277,
        "lon": -159.6236124971537,
        "alt_km": 742.5937574004301,
        "timestamp": "2025-12-04T10:51:50.491166+00:00",
        "meta_object_name": "IRIDIUM 33 DEB",
        "meta_object_id": "1997-051AAB",
        "meta_epoch": "2025-11-29T08:54:08.657856",
        "meta_mean_motion": 14.50603208,
        "meta_eccentricity": 0.002717,
        "meta_inclination": 86.3442,
        "meta_ra_of_asc_node": 15.8845,
        "meta_arg_of_pericenter": 130.9322,
        "meta_mean_anomaly": 229.4241,
        "meta_ephemeris_type": 0,
        "meta_classification_type": "U",
        "meta_norad_cat_id": 38474,
        "meta_element_set_no": 999,
        "meta_rev_at_epoch": 65124,
        "meta_bstar": 0.00047302373,
        "meta_mean_motion_dot": 1.884e-05,
        "meta_mean_motion_ddot": 0,
        "tle_line1": "1 38474U 97051AAB 25333.37093354  .00001884  00000+0  47302-3 0  9997",
        "tle_line2": "2 38474  86.3442  15.8845 0027170 130.9322 229.4241 14.50603208651244"
      },
      "geometry": {
        "type": "Point",
        "coordinates": [
          -159.6236124971537,
          -61.29448949228277
        ]
      }
    },
    {
      "type": "Feature",
      "properties": {
        "norad_id": 39777,
        "name": "IRIDIUM 33 DEB",
        "group": "iridium-33-debris",
        "lat": 60.096616071527336,
        "lon": -7.99326668804505,
        "alt_km": 704.0528790334465,
        "timestamp": "2025-12-04T10:51:50.491176+00:00",
        "meta_object_name": "IRIDIUM 33 DEB",
        "meta_object_id": "1997-051AAJ",
        "meta_epoch": "2025-12-01T13:02:19.201056",
        "meta_mean_motion": 14.56024465,
        "meta_eccentricity": 0.00595889,
        "meta_inclination": 85.9622,
        "meta_ra_of_asc_node": 180.4732,
        "meta_arg_of_pericenter": 225.0821,
        "meta_mean_anomaly": 134.5543,
        "meta_ephemeris_type": 0,
        "meta_classification_type": "U",
        "meta_norad_cat_id": 39777,
        "meta_element_set_no": 999,
        "meta_rev_at_epoch": 60022,
        "meta_bstar": 0.0022774227,
        "meta_mean_motion_dot": 0.00010294,
        "meta_mean_motion_ddot": 0,
        "tle_line1": "1 39777U 97051AAJ 25335.54327779  .00010294  00000+0  22774-2 0  9996",
        "tle_line2": "2 39777  85.9622 180.4732 0059588 225.0821 134.5543 14.56024465600229"
      },
      "geometry": {
        "type": "Point",
        "coordinates": [
          -7.99326668804505,
          60.096616071527336
        ]
      }
    },
    {
      "type": "Feature",
      "properties": {
        "norad_id": 39778,
        "name": "IRIDIUM 33 DEB",
        "group": "iridium-33-debris",
        "lat": 16.725261075170092,
        "lon": 47.91320655028827,
        "alt_km": 708.6180127148336,
        "timestamp": "2025-12-04T10:51:50.491186+00:00",
        "meta_object_name": "IRIDIUM 33 DEB",
        "meta_object_id": "1997-051AAK",
        "meta_epoch": "2025-12-03T11:39:58.195872",
        "meta_mean_motion": 14.54148527,
        "meta_eccentricity": 0.00088134,
        "meta_inclination": 86.3788,
        "meta_ra_of_asc_node": 47.2421,
        "meta_arg_of_pericenter": 68.6106,
        "meta_mean_anomaly": 291.604,
        "meta_ephemeris_type": 0,
        "meta_classification_type": "U",
        "meta_norad_cat_id": 39778,
        "meta_element_set_no": 999,
        "meta_rev_at_epoch": 60558,
        "meta_bstar": 0.0013693444,
        "meta_mean_motion_dot": 5.812e-05,
        "meta_mean_motion_ddot": 0,
        "tle_line1": "1 39778U 97051AAK 25337.48609023  .00005812  00000+0  13693-2 0  9997",
        "tle_line2": "2 39778  86.3788  47.2421 0008813  68.6106 291.6040 14.54148527605580"
      },
      "geometry": {
        "type": "Point",
        "coordinates": [
          47.91320655028827,
          16.725261075170092
        ]
      }
    },
    {
      "type": "Feature",
      "properties": {
        "norad_id": 39781,
        "name": "IRIDIUM 33 DEB",
        "group": "iridium-33-debris",
        "lat": 60.06799734007429,
        "lon": -92.27640082706486,
        "alt_km": 884.8486443710863,
        "timestamp": "2025-12-04T10:51:50.491197+00:00",
        "meta_object_name": "IRIDIUM 33 DEB",
        "meta_object_id": "1997-051AAN",
        "meta_epoch": "2025-12-01T14:05:13.737984",
        "meta_mean_motion": 14.20093316,
        "meta_eccentricity": 0.01818611,
        "meta_inclination": 86.3695,
        "meta_ra_of_asc_node": 262.5729,
        "meta_arg_of_pericenter": 308.3699,
        "meta_mean_anomaly": 228.4219,
        "meta_ephemeris_type": 0,
        "meta_classification_type": "U",
        "meta_norad_cat_id": 39781,
        "meta_element_set_no": 999,
        "meta_rev_at_epoch": 7948,
        "meta_bstar": 0.0058998753,
        "meta_mean_motion_dot": 0.00014872,
        "meta_mean_motion_ddot": 0,
        "tle_line1": "1 39781U 97051AAN 25335.58696456  .00014872  00000+0  58999-2 0  9990",
        "tle_line2": "2 39781  86.3695 262.5729 0181861 308.3699 228.4219 14.20093316 79488"
      },
      "geometry": {
        "type": "Point",
        "coordinates": [
          -92.27640082706486,
          60.06799734007429
        ]
      }
    },
    {
      "type": "Feature",
      "properties": {
        "norad_id": 39783,
        "name": "IRIDIUM 33 DEB",
        "group": "iridium-33-debris",
        "lat": -43.674015148005246,
        "lon": -104.10939245173775,
        "alt_km": 492.51220956975703,
        "timestamp": "2025-12-04T10:51:50.491208+00:00",
        "meta_object_name": "IRIDIUM 33 DEB",
        "meta_object_id": "1997-051AAQ",
        "meta_epoch": "2025-11-16T15:05:40.850592",
        "meta_mean_motion": 15.19327111,
        "meta_eccentricity": 0.00057535,
        "meta_inclination": 86.1306,
        "meta_ra_of_asc_node": 268.8004,
        "meta_arg_of_pericenter": 179.9151,
        "meta_mean_anomaly": 1.8316,
        "meta_ephemeris_type": 0,
        "meta_classification_type": "U",
        "meta_norad_cat_id": 39783,
        "meta_element_set_no": 999,
        "meta_rev_at_epoch": 60401,
        "meta_bstar": 0.010398125,
        "meta_mean_motion_dot": 0.00226179,
        "meta_mean_motion_ddot": 0,
        "tle_line1": "1 39783U 97051AAQ 25320.62894503  .00226179  00000+0  10398-1 0  9999",
        "tle_line2": "2 39783  86.1306 268.8004 0005753 179.9151   1.8316 15.19327111604018"
      },
      "geometry": {
        "type": "Point",
        "coordinates": [
          -104.10939245173775,
          -43.674015148005246
        ]
      }
    },
    {
      "type": "Feature",
      "properties": {
        "norad_id": 40996,
        "name": "IRIDIUM 33 DEB",
        "group": "iridium-33-debris",
        "lat": 38.63134608540823,
        "lon": -177.64209162207374,
        "alt_km": 573.7245548826868,
        "timestamp": "2025-12-04T10:51:50.491218+00:00",
        "meta_object_name": "IRIDIUM 33 DEB",
        "meta_object_id": "1997-051ABJ",
        "meta_epoch": "2025-12-02T08:31:11.979264",
        "meta_mean_motion": 14.95250831,
        "meta_eccentricity": 0.00120962,
        "meta_inclination": 86.3524,
        "meta_ra_of_asc_node": 6.2584,
        "meta_arg_of_pericenter": 92.2467,
        "meta_mean_anomaly": 284.2756,
        "meta_ephemeris_type": 0,
        "meta_classification_type": "U",
        "meta_norad_cat_id": 40996,
        "meta_element_set_no": 999,
        "meta_rev_at_epoch": 62333,
        "meta_bstar": 0.0031243939,
        "meta_mean_motion_dot": 0.0003457,
        "meta_mean_motion_ddot": 0,
        "tle_line1": "1 40996U 97051ABJ 25336.35499976  .00034570  00000+0  31244-2 0  9995",
        "tle_line2": "2 40996  86.3524   6.2584 0012096  92.2467 284.2756 14.95250831623330"
      },
      "geometry": {
        "type": "Point",
        "coordinates": [
          -177.64209162207374,
          38.63134608540823
        ]
      }
    },
    {
      "type": "Feature",
      "properties": {
        "norad_id": 40998,
        "name": "IRIDIUM 33 DEB",
        "group": "iridium-33-debris",
        "lat": -51.06885606055046,
        "lon": 52.70519595736287,
        "alt_km": 755.1381532674932,
        "timestamp": "2025-12-04T10:51:50.491228+00:00",
        "meta_object_name": "IRIDIUM 33 DEB",
        "meta_object_id": "1997-051ABL",
        "meta_epoch": "2025-12-03T12:06:12.154176",
        "meta_mean_motion": 14.45043538,
        "meta_eccentricity": 0.00095708,
        "meta_inclination": 86.3836,
        "meta_ra_of_asc_node": 57.6004,
        "meta_arg_of_pericenter": 108.6038,
        "meta_mean_anomaly": 309.9308,
        "meta_ephemeris_type": 0,
        "meta_classification_type": "U",
        "meta_norad_cat_id": 40998,
        "meta_element_set_no": 999,
        "meta_rev_at_epoch": 6548,
        "meta_bstar": 0.00081638604,
        "meta_mean_motion_dot": 2.87e-05,
        "meta_mean_motion_ddot": 0,
        "tle_line1": "1 40998U 97051ABL 25337.50430734  .00002870  00000+0  81639-3 0  9994",
        "tle_line2": "2 40998  86.3836  57.6004 0009570 108.6038 309.9308 14.45043538 65487"
      },
      "geometry": {
        "type": "Point",
        "coordinates": [
          52.70519595736287,
          -51.06885606055046
        ]
      }
    }
  ]
}